     2.100          NAVIGATION                              RINEX VERSION / TYPE
fic2rin                                 01/27/2012 00:06:26 PGM / RUN BY / DATE
                                                            END OF HEADER
14 12  1 26  8  0  0.0  .191496685147D-03  .147792889038D-11  .000000000000D+00
     .950000000000D+02 -.331250000000D+02  .389766235328D-08  .188538169952D+01
    -.165775418282D-05  .620920141228D-02  .102296471596D-04  .515376864433D+04
     .374400000000D+06 -.763684511185D-07 -.310024603753D+01 -.163912773132D-06
     .980362470043D+00  .190500000000D+03 -.205444129358D+01 -.774532262378D-08
    -.391802034413D-09  .100000000000D+01  .167200000000D+04  .000000000000D+00
     .240000000000D+01  .000000000000D+00 -.884756445885D-08  .950000000000D+02
     .367206000000D+06  .400000000000D+01
15 12  1 26  8  0  0.0 -.939853489399D-04  .568434188608D-12  .000000000000D+00
     .420000000000D+02 -.319375000000D+02  .471412493365D-08  .154478369766D+01
    -.156834721565D-05  .428369606379D-02  .963732600212D-05  .515376013374D+04
     .374400000000D+06  .372529029846D-07  .309921897249D+01  .633299350739D-07
     .947252335856D+00  .185375000000D+03  .758398968647D-02 -.815105380982D-08
    -.513235664040D-09  .100000000000D+01  .167200000000D+04  .000000000000D+00
     .240000000000D+01  .000000000000D+00 -.102445483208D-07  .420000000000D+02
     .367206000000D+06  .400000000000D+01
16 12  1 26  8  0  0.0 -.220560003072D-03 -.170530256582D-11  .000000000000D+00
     .920000000000D+02 -.278125000000D+01  .455768984608D-08 -.299916147623D+01
    -.596046447754D-07  .635393033735D-02  .288151204586D-05  .515359708214D+04
     .374400000000D+06 -.117346644402D-06 -.102869708296D+01  .242143869400D-07
     .978989183492D+00  .335187500000D+03 -.825526339857D-01 -.816926885427D-08
     .789318592573D-10  .100000000000D+01  .167200000000D+04  .000000000000D+00
     .240000000000D+01  .000000000000D+00 -.977888703346D-08  .920000000000D+02
     .367206000000D+06  .400000000000D+01
17 12  1 26  8  0  0.0  .152553431690D-03 -.227373675443D-11  .000000000000D+00
     .750000000000D+02 -.923125000000D+02  .431982279510D-08  .233058625112D+01
    -.490434467793D-05  .708208384458D-02  .966899096966D-05  .515363521957D+04
     .374400000000D+06 -.894069671631D-07  .125312875099D-01 -.117346644402D-06
     .962782312845D+00  .194937500000D+03 -.236156922342D+01 -.787782814316D-08
    -.300012496725D-09  .100000000000D+01  .167200000000D+04  .000000000000D+00
     .340000000000D+01  .000000000000D+00 -.107102096081D-07  .750000000000D+02
     .367206000000D+06  .400000000000D+01
18 12  1 26  8  0  0.0  .178562011570D-03  .181898940355D-11  .000000000000D+00
     .360000000000D+02  .112500000000D+02  .551165815411D-08 -.250214481939D+01
     .571832060814D-06  .127781857736D-01  .375322997570D-05  .515365678978D+04
     .374400000000D+06  .800937414169D-07  .208451772919D+01 -.128522515297D-06
     .930322216066D+00  .290687500000D+03 -.219896973809D+01 -.846535261592D-08
     .101789954246D-09  .100000000000D+01  .167200000000D+04  .000000000000D+00
     .240000000000D+01  .000000000000D+00 -.111758708954D-07  .360000000000D+02
     .367206000000D+06  .400000000000D+01
19 12  1 26  8  0  0.0 -.229416880757D-03 -.386535248253D-11  .000000000000D+00
     .860000000000D+02 -.924687500000D+02  .453911764390D-08  .151564806613D+01
    -.455230474472D-05  .784328510053D-02  .942498445511D-05  .515374629974D+04
     .374400000000D+06  .372529029846D-08  .658709571841D-01  .894069671631D-07
     .960202923483D+00  .197531250000D+03  .138837026091D+00 -.805604985253D-08
    -.382515933324D-09  .100000000000D+01  .167200000000D+04  .000000000000D+00
     .240000000000D+01  .000000000000D+00 -.144354999065D-07  .860000000000D+02
     .367206000000D+06  .400000000000D+01
20 12  1 26  8  0  0.0  .607315450907D-04  .682121026330D-12  .000000000000D+00
     .102000000000D+03  .176562500000D+02  .553165898723D-08 -.209280852629D+01
     .962987542152D-06  .511806586292D-02  .378862023354D-05  .515377560616D+04
     .374400000000D+06  .782310962677D-07  .203069425057D+01  .931322574615D-08
     .930662866781D+00  .290562500000D+03  .127275774105D+01 -.861143012920D-08
     .328585115460D-10  .100000000000D+01  .167200000000D+04  .000000000000D+00
     .340000000000D+01  .000000000000D+00 -.791624188423D-08  .102000000000D+03
     .367206000000D+06  .400000000000D+01
21 12  1 26  8  0  0.0 -.200146343559D-03 -.250111042988D-11  .000000000000D+00
     .700000000000D+02  .455937500000D+02  .500270838288D-08 -.143959500747D+01
     .228174030781D-05  .184669820592D-01  .102613121271D-04  .515366146660D+04
     .374400000000D+06  .478699803352D-06  .103213830077D+01 -.558793544769D-07
     .931377866529D+00  .161125000000D+03 -.229980008372D+01 -.808569394447D-08
     .391802034413D-09  .100000000000D+01  .167200000000D+04  .000000000000D+00
     .240000000000D+01  .000000000000D+00 -.111758708954D-07  .700000000000D+02
     .367206000000D+06  .400000000000D+01
22 12  1 26  8  0  0.0  .142978969961D-03  .000000000000D+00  .000000000000D+00
     .110000000000D+02  .159687500000D+02  .559559022165D-08  .292411104750D+01
     .769272446632D-06  .571909546852D-02  .395625829697D-05  .515368468857D+04
     .374400000000D+06  .186264514923D-07  .208815389400D+01 -.316649675369D-07
     .928035841881D+00  .285593750000D+03 -.199282774253D+01 -.858857203421D-08
     .271439877989D-10  .100000000000D+01  .167200000000D+04  .000000000000D+00
     .240000000000D+01  .000000000000D+00 -.167638063431D-07  .110000000000D+02
     .367206000000D+06  .400000000000D+01
23 12  1 26  8  0  0.0  .238609034568D-03 -.329691829393D-11  .000000000000D+00
     .120000000000D+02 -.357812500000D+02  .437553940164D-08  .105483331697D+01
    -.174716114998D-05  .753308366984D-02  .950507819653D-05  .515368138123D+04
     .374400000000D+06 -.298023223877D-07  .313310350090D+01  .158324837685D-06
     .961935333016D+00  .197250000000D+03 -.302814109633D+01 -.797318925819D-08
    -.456090426568D-09  .100000000000D+01  .167200000000D+04  .000000000000D+00
     .240000000000D+01  .000000000000D+00 -.204890966415D-07  .120000000000D+02
     .367206000000D+06  .400000000000D+01
25 12  1 26  8  0  0.0  .312863849103D-04  .227373675443D-12  .000000000000D+00
     .510000000000D+02  .187500000000D+00  .488448917287D-08 -.190989337324D+01
     .186264514923D-07  .113796698861D-02  .262074172497D-05  .515376092720D+04
     .374400000000D+06  .372529029846D-08 -.107944858284D+01 -.428408384323D-07
     .966911618561D+00  .333968750000D+03  .675424805057D+00 -.844999483335D-08
     .116076263614D-09  .100000000000D+01  .167200000000D+04  .000000000000D+00
     .240000000000D+01  .000000000000D+00  .512227416039D-08  .510000000000D+02
     .367206000000D+06  .400000000000D+01
26 12  1 26  8  0  0.0 -.313349999487D-03 -.144382283906D-10  .000000000000D+00
     .790000000000D+02 -.179687500000D+02  .390766276984D-08  .924085601726D+00
    -.964850187302D-06  .206784872571D-01  .108312815428D-04  .515365633202D+04
     .374400000000D+06 -.247731804848D-06 -.308001661615D+01  .540167093277D-07
     .985037634383D+00  .189062500000D+03  .116858110928D+01 -.802176271004D-08
    -.546808491054D-09  .100000000000D+01  .167200000000D+04  .000000000000D+00
     .240000000000D+01  .000000000000D+00 -.605359673500D-08  .790000000000D+02
     .367206000000D+06  .400000000000D+01
27 12  1 26  8  0  0.0  .350169837475D-03  .386535248253D-11  .000000000000D+00
     .460000000000D+02  .821250000000D+02  .384373153542D-08  .188129791982D+01
     .414066016674D-05  .219474714249D-01  .934302806854D-05  .515355934143D+04
     .374400000000D+06  .383704900742D-06 -.215626480844D+01  .447034835815D-07
     .981885904655D+00  .204468750000D+03 -.113577687127D+01 -.748781189742D-08
     .180721813503D-09  .100000000000D+01  .167200000000D+04  .000000000000D+00
     .340000000000D+01  .000000000000D+00 -.419095158577D-08  .460000000000D+02
     .367206000000D+06  .400000000000D+01
28 12  1 26  8  0  0.0  .106420833617D-03  .375166564481D-11  .000000000000D+00
     .540000000000D+02 -.163125000000D+02  .449054419205D-08  .290910370531D+01
    -.903382897377D-06  .178476873552D-01  .208057463169D-05  .515370655441D+04
     .374400000000D+06  .199303030968D-06 -.102179572304D+01 -.229105353355D-06
     .977332311734D+00  .346468750000D+03 -.184944686363D+01 -.801211945122D-08
    -.371444043564D-10  .100000000000D+01  .167200000000D+04  .000000000000D+00
     .240000000000D+01  .000000000000D+00 -.107102096081D-07  .540000000000D+02
     .367206000000D+06  .400000000000D+01
29 12  1 26  8  0  0.0  .278701540083D-03  .352429196937D-11  .000000000000D+00
     .450000000000D+02 -.934375000000D+02  .442196990708D-08 -.118519310876D+01
    -.486709177494D-05  .218863901682D-02  .967085361481D-05  .515364990807D+04
     .374400000000D+06 -.428408384323D-07  .210359939479D-01 -.391155481339D-07
     .963288021681D+00  .190937500000D+03 -.119723921217D+01 -.805712132573D-08
    -.356086260993D-09  .100000000000D+01  .167200000000D+04  .000000000000D+00
     .240000000000D+01  .000000000000D+00 -.931322574615D-08  .450000000000D+02
     .367206000000D+06  .400000000000D+01
30 12  1 26  8  0  0.0 -.225109979510D-04 -.138697942020D-10  .000000000000D+00
     .660000000000D+02  .182500000000D+02  .498627912711D-08  .213960374708D+01
     .780448317528D-06  .108887116658D-01  .258907675743D-05  .515360446930D+04
     .374400000000D+06  .111758708954D-06 -.116926050892D+01 -.128522515297D-06
     .958144714779D+00  .327312500000D+03  .155437456811D+01 -.834999066777D-08
     .141077305007D-09  .200000000000D+01  .167200000000D+04  .100000000000D+01
     .965000000000D+01  .000000000000D+00 -.419095158577D-08  .660000000000D+02
     .367206000000D+06  .400000000000D+01
